ERS-1                   
1 21574U 91050A   26066.61200023  .00000445  00000+0  15682-3 0  9995
2 21574  98.7884  84.7944 0031510 206.7069 153.2496 14.39447600815430
ARIANE 40 R/B           
1 21610U 91050F   26066.59854978  .00000409  00000+0  13491-3 0  9993
2 21610  98.2016 118.9134 0004357  85.8260 274.3429 14.42891918818693
INTERCOSMOS 25          
1 21819U 91086A   26066.59387993  .00001520  00000+0  29099-3 0  9997
2 21819  82.6050 311.2755 1487004 121.4454 254.0628 12.11992204496437
SL-8 R/B                
1 21876U 92008B   26066.61330086  .00000009  00000+0 -66036-5 0  9995
2 21876  82.9225 269.3233 0035444 138.9783 283.5673 13.75969775709134
SL-8 R/B                
1 21938U 92020B   26066.66563603  .00000108  00000+0  96621-4 0  9997
2 21938  82.9339 155.2641 0027733 304.7041 166.4645 13.75549334700850
USA 81                  
1 21949U 92023A   26066.63293158  .00000229  00000+0  77566-4 0  9995
2 21949  85.0088 132.6277 0002523  79.2218 280.9258 14.32367249 94496
COSMOS 2219             
1 22219U 92076A   26066.32812136  .00000232  00000+0  14625-3 0  9993
2 22219  71.0629  23.0035 0019167 210.2267 149.7752 14.14091747718043
SL-16 R/B               
1 22220U 92076B   26066.65573455 -.00000120  00000+0 -36185-4 0  9993
2 22220  71.0005 192.6574 0010493 100.1379 354.4130 14.16860107721548
COSMOS 2221             
1 22236U 92080A   26066.63102639  .00002200  00000+0  19264-3 0  9992
2 22236  82.5010 281.0535 0013859 194.2098 165.8736 14.96191649780489
SL-16 R/B               
1 22285U 92093B   26066.54872439 -.00000199  00000+0 -77712-4 0  9992
2 22285  71.0240   8.7596 0006387 295.9298  64.1167 14.15448574712859
COSMOS 2228             
1 22286U 92094A   26066.58191924  .00003095  00000+0  26492-3 0  9995
2 22286  82.5151 239.3288 0016925 312.2541  47.7245 14.97178539775743
SL-16 R/B               
1 22566U 93016B   26066.65961925  .00000216  00000+0  13542-3 0  9999
2 22566  71.0067 219.4444 0011635 317.0817  42.9397 14.15307914701888
