CCSDS_OMM_VERS = 2.0
CREATION_DATE  = 
ORIGINATOR     = 

OBJECT_NAME    = ERS-1
OBJECT_ID      = 1991-050A
CENTER_NAME    = EARTH
REF_FRAME      = TEME
TIME_SYSTEM    = UTC
MEAN_ELEMENT_THEORY = SGP/SGP4

EPOCH          = 2026-03-07T14:41:16.819872
MEAN_MOTION    = 14.39447600
ECCENTRICITY   = .00315109
INCLINATION    = 98.7884
RA_OF_ASC_NODE = 84.7944
ARG_OF_PERICENTER = 206.7069
MEAN_ANOMALY   = 153.2496

EPHEMERIS_TYPE = 0
CLASSIFICATION_TYPE = U
NORAD_CAT_ID   = 21574
ELEMENT_SET_NO = 999
REV_AT_EPOCH   = 81543
BSTAR          = .15681701E-3
MEAN_MOTION_DOT = .445E-5
MEAN_MOTION_DDOT = 0

CCSDS_OMM_VERS = 2.0
CREATION_DATE  = 
ORIGINATOR     = 

OBJECT_NAME    = ARIANE 40 R/B
OBJECT_ID      = 1991-050F
CENTER_NAME    = EARTH
REF_FRAME      = TEME
TIME_SYSTEM    = UTC
MEAN_ELEMENT_THEORY = SGP/SGP4

EPOCH          = 2026-03-07T14:21:54.700992
MEAN_MOTION    = 14.42891918
ECCENTRICITY   = .00043576
INCLINATION    = 98.2016
RA_OF_ASC_NODE = 118.9134
ARG_OF_PERICENTER = 85.8260
MEAN_ANOMALY   = 274.3429

EPHEMERIS_TYPE = 0
CLASSIFICATION_TYPE = U
NORAD_CAT_ID   = 21610
ELEMENT_SET_NO = 999
REV_AT_EPOCH   = 81869
BSTAR          = .13490691E-3
MEAN_MOTION_DOT = .409E-5
MEAN_MOTION_DDOT = 0

CCSDS_OMM_VERS = 2.0
CREATION_DATE  = 
ORIGINATOR     = 

OBJECT_NAME    = INTERCOSMOS 25
OBJECT_ID      = 1991-086A
CENTER_NAME    = EARTH
REF_FRAME      = TEME
TIME_SYSTEM    = UTC
MEAN_ELEMENT_THEORY = SGP/SGP4

EPOCH          = 2026-03-07T14:15:11.225952
MEAN_MOTION    = 12.11992204
ECCENTRICITY   = .14870041
INCLINATION    = 82.6050
RA_OF_ASC_NODE = 311.2755
ARG_OF_PERICENTER = 121.4454
MEAN_ANOMALY   = 254.0628

EPHEMERIS_TYPE = 0
CLASSIFICATION_TYPE = U
NORAD_CAT_ID   = 21819
ELEMENT_SET_NO = 999
REV_AT_EPOCH   = 49643
BSTAR          = .29099158E-3
MEAN_MOTION_DOT = .152E-4
MEAN_MOTION_DDOT = 0

CCSDS_OMM_VERS = 2.0
CREATION_DATE  = 
ORIGINATOR     = 

OBJECT_NAME    = SL-8 R/B
OBJECT_ID      = 1992-008B
CENTER_NAME    = EARTH
REF_FRAME      = TEME
TIME_SYSTEM    = UTC
MEAN_ELEMENT_THEORY = SGP/SGP4

EPOCH          = 2026-03-07T14:43:09.194304
MEAN_MOTION    = 13.75969775
ECCENTRICITY   = .00354443
INCLINATION    = 82.9225
RA_OF_ASC_NODE = 269.3233
ARG_OF_PERICENTER = 138.9783
MEAN_ANOMALY   = 283.5673

EPHEMERIS_TYPE = 0
CLASSIFICATION_TYPE = U
NORAD_CAT_ID   = 21876
ELEMENT_SET_NO = 999
REV_AT_EPOCH   = 70913
BSTAR          = -.6603586E-5
MEAN_MOTION_DOT = .9E-7
MEAN_MOTION_DDOT = 0

CCSDS_OMM_VERS = 2.0
CREATION_DATE  = 
ORIGINATOR     = 

OBJECT_NAME    = SL-8 R/B
OBJECT_ID      = 1992-020B
CENTER_NAME    = EARTH
REF_FRAME      = TEME
TIME_SYSTEM    = UTC
MEAN_ELEMENT_THEORY = SGP/SGP4

EPOCH          = 2026-03-07T15:58:30.952992
MEAN_MOTION    = 13.75549334
ECCENTRICITY   = .00277336
INCLINATION    = 82.9339
RA_OF_ASC_NODE = 155.2641
ARG_OF_PERICENTER = 304.7041
MEAN_ANOMALY   = 166.4645

EPHEMERIS_TYPE = 0
CLASSIFICATION_TYPE = U
NORAD_CAT_ID   = 21938
ELEMENT_SET_NO = 999
REV_AT_EPOCH   = 70085
BSTAR          = .96621339E-4
MEAN_MOTION_DOT = .108E-5
MEAN_MOTION_DDOT = 0

CCSDS_OMM_VERS = 2.0
CREATION_DATE  = 
ORIGINATOR     = 

OBJECT_NAME    = USA 81
OBJECT_ID      = 1992-023A
CENTER_NAME    = EARTH
REF_FRAME      = TEME
TIME_SYSTEM    = UTC
MEAN_ELEMENT_THEORY = SGP/SGP4

EPOCH          = 2026-03-07T15:11:25.288512
MEAN_MOTION    = 14.32367249
ECCENTRICITY   = .00025237
INCLINATION    = 85.0088
RA_OF_ASC_NODE = 132.6277
ARG_OF_PERICENTER = 79.2218
MEAN_ANOMALY   = 280.9258

EPHEMERIS_TYPE = 0
CLASSIFICATION_TYPE = U
NORAD_CAT_ID   = 21949
ELEMENT_SET_NO = 999
REV_AT_EPOCH   = 9449
BSTAR          = .77565965E-4
MEAN_MOTION_DOT = .229E-5
MEAN_MOTION_DDOT = 0

CCSDS_OMM_VERS = 2.0
CREATION_DATE  = 
ORIGINATOR     = 

OBJECT_NAME    = COSMOS 2219
OBJECT_ID      = 1992-076A
CENTER_NAME    = EARTH
REF_FRAME      = TEME
TIME_SYSTEM    = UTC
MEAN_ELEMENT_THEORY = SGP/SGP4

EPOCH          = 2026-03-07T07:52:29.685504
MEAN_MOTION    = 14.14091747
ECCENTRICITY   = .00191677
INCLINATION    = 71.0629
RA_OF_ASC_NODE = 23.0035
ARG_OF_PERICENTER = 210.2267
MEAN_ANOMALY   = 149.7752

EPHEMERIS_TYPE = 0
CLASSIFICATION_TYPE = U
NORAD_CAT_ID   = 22219
ELEMENT_SET_NO = 999
REV_AT_EPOCH   = 71804
BSTAR          = .14624764E-3
MEAN_MOTION_DOT = .232E-5
MEAN_MOTION_DDOT = 0

CCSDS_OMM_VERS = 2.0
CREATION_DATE  = 
ORIGINATOR     = 

OBJECT_NAME    = SL-16 R/B
OBJECT_ID      = 1992-076B
CENTER_NAME    = EARTH
REF_FRAME      = TEME
TIME_SYSTEM    = UTC
MEAN_ELEMENT_THEORY = SGP/SGP4

EPOCH          = 2026-03-07T15:44:15.465120
MEAN_MOTION    = 14.16860107
ECCENTRICITY   = .00104938
INCLINATION    = 71.0005
RA_OF_ASC_NODE = 192.6574
ARG_OF_PERICENTER = 100.1379
MEAN_ANOMALY   = 354.4130

EPHEMERIS_TYPE = 0
CLASSIFICATION_TYPE = U
NORAD_CAT_ID   = 22220
ELEMENT_SET_NO = 999
REV_AT_EPOCH   = 72154
BSTAR          = -.36185299E-4
MEAN_MOTION_DOT = -.12E-5
MEAN_MOTION_DDOT = 0

CCSDS_OMM_VERS = 2.0
CREATION_DATE  = 
ORIGINATOR     = 

OBJECT_NAME    = COSMOS 2221
OBJECT_ID      = 1992-080A
CENTER_NAME    = EARTH
REF_FRAME      = TEME
TIME_SYSTEM    = UTC
MEAN_ELEMENT_THEORY = SGP/SGP4

EPOCH          = 2026-03-07T15:08:40.680096
MEAN_MOTION    = 14.96191649
ECCENTRICITY   = .0013859
INCLINATION    = 82.5010
RA_OF_ASC_NODE = 281.0535
ARG_OF_PERICENTER = 194.2098
MEAN_ANOMALY   = 165.8736

EPHEMERIS_TYPE = 0
CLASSIFICATION_TYPE = U
NORAD_CAT_ID   = 22236
ELEMENT_SET_NO = 999
REV_AT_EPOCH   = 78048
BSTAR          = .19263508E-3
MEAN_MOTION_DOT = .22E-4
MEAN_MOTION_DDOT = 0

CCSDS_OMM_VERS = 2.0
CREATION_DATE  = 
ORIGINATOR     = 

OBJECT_NAME    = SL-16 R/B
OBJECT_ID      = 1992-093B
CENTER_NAME    = EARTH
REF_FRAME      = TEME
TIME_SYSTEM    = UTC
MEAN_ELEMENT_THEORY = SGP/SGP4

EPOCH          = 2026-03-07T13:10:09.787296
MEAN_MOTION    = 14.15448574
ECCENTRICITY   = .0006387
INCLINATION    = 71.0240
RA_OF_ASC_NODE = 8.7596
ARG_OF_PERICENTER = 295.9298
MEAN_ANOMALY   = 64.1167

EPHEMERIS_TYPE = 0
CLASSIFICATION_TYPE = U
NORAD_CAT_ID   = 22285
ELEMENT_SET_NO = 999
REV_AT_EPOCH   = 71285
BSTAR          = -.77712061E-4
MEAN_MOTION_DOT = -.199E-5
MEAN_MOTION_DDOT = 0

CCSDS_OMM_VERS = 2.0
CREATION_DATE  = 
ORIGINATOR     = 

OBJECT_NAME    = COSMOS 2228
OBJECT_ID      = 1992-094A
CENTER_NAME    = EARTH
REF_FRAME      = TEME
TIME_SYSTEM    = UTC
MEAN_ELEMENT_THEORY = SGP/SGP4

EPOCH          = 2026-03-07T13:57:57.822336
MEAN_MOTION    = 14.97178539
ECCENTRICITY   = .00169252
INCLINATION    = 82.5151
RA_OF_ASC_NODE = 239.3288
ARG_OF_PERICENTER = 312.2541
MEAN_ANOMALY   = 47.7245

EPHEMERIS_TYPE = 0
CLASSIFICATION_TYPE = U
NORAD_CAT_ID   = 22286
ELEMENT_SET_NO = 999
REV_AT_EPOCH   = 77574
BSTAR          = .26491502E-3
MEAN_MOTION_DOT = .3095E-4
MEAN_MOTION_DDOT = 0

CCSDS_OMM_VERS = 2.0
CREATION_DATE  = 
ORIGINATOR     = 

OBJECT_NAME    = SL-16 R/B
OBJECT_ID      = 1993-016B
CENTER_NAME    = EARTH
REF_FRAME      = TEME
TIME_SYSTEM    = UTC
MEAN_ELEMENT_THEORY = SGP/SGP4

EPOCH          = 2026-03-07T15:49:51.103200
MEAN_MOTION    = 14.15307914
ECCENTRICITY   = .00116355
INCLINATION    = 71.0067
RA_OF_ASC_NODE = 219.4444
ARG_OF_PERICENTER = 317.0817
MEAN_ANOMALY   = 42.9397

EPHEMERIS_TYPE = 0
CLASSIFICATION_TYPE = U
NORAD_CAT_ID   = 22566
ELEMENT_SET_NO = 999
REV_AT_EPOCH   = 70188
BSTAR          = .13542058E-3
MEAN_MOTION_DOT = .216E-5
MEAN_MOTION_DDOT = 0

